{{Infobox Planet  
| name=737 Arequipa (1912 QB)
| image=
| caption=
| discovery=yes 
| physical_characteristics=yes 
| bgcolour=#FFFFC0
| discoverer=[[乔尔·梅特卡夫|乔尔·梅特卡夫]]
| discovery_site=[[温彻斯特_(马萨诸塞州)|温彻斯特]]
| discovered=1912年12月7日
| mp_name=737
| alt_names=
| mp_category=[[小行星带|主带小行星]]
| epoch=2456400.5 (2013-Apr-18.0) TDB
| semimajor= 2.594036789329004AU
| perihelion=1.965327245641266AU
| aphelion=3.222746333016743AU
| eccentricity=.2423672425441453
| period=1526.028425971369天<br>4.18年
| inclination=12.34813179994821°
| asc_node=184.8605710619591°	
| arg_peri=134.0975844198111°
| mean_anomaly=101.4079651785744°
 | dimensions=
 | mean_radius=22.035千米
 | rotation=14.13小时
 | spectral_type=S
 | abs_magnitude=8.81
 | albedo=0.2723
}}
'''小行星737'''（737 Arequipa (1912 QB)），是[[乔尔·梅特卡夫|乔尔·梅特卡夫]]于1912年12月7日在美国[[马萨诸塞州|马萨诸塞州]][[温彻斯特_(马萨诸塞州)|温彻斯特]]发现的[[小行星带|主带小行星]]<ref>{{JPL Small Body|name=737}}</ref>。它以[[秘鲁|秘鲁]]城市[[阿雷基帕|阿雷基帕]]命名，因为1927年以前哈佛大学的[[博伊登天文台|博伊登天文台]]位于此地。

== 参考资料==
{{Reflist}}

{{Minor Planet Number|[[小行星736|小行星736]]|[[小行星738|小行星738]]}}
{{beltasteroid-stub}}

[[Category:小行星带天体|Category:小行星带天体]]
[[Category:1912年发现的小行星|Category:1912年发现的小行星]]
[[Category:以地名命名的小行星|Category:以地名命名的小行星]]